start=new Date('2022-11-23T00:00:00.000Z').valueOf();
sats=[{"ECCENTRICITY":"0.00015430","MEAN_ELEMENT_THEORY":"SGP4","TIME_SYSTEM":"UTC","MEAN_MOTION_DOT":"0.00001346","EPHEMERIS_TYPE":"0","OBJECT_ID":"2020-035E","TLE_LINE2":"2 45661  53.0563  67.9241 0001543  84.5045 275.6120 15.06401527137380","ARG_OF_PERICENTER":"84.5045","CLASSIFICATION_TYPE":"U","SITE":"AFETR","FILE":"3667274","REF_FRAME":"TEME","RA_OF_ASC_NODE":"67.9241","NORAD_CAT_ID":"45661","APOAPSIS":"548.277","OBJECT_TYPE":"PAYLOAD","ELEMENT_SET_NO":"999","GP_ID":"218469432","PERIOD":"95.592","MEAN_ANOMALY":"275.6120","CENTER_NAME":"EARTH","MEAN_MOTION_DDOT":"0.0000000000000","BSTAR":"0.00010922000000","INCLINATION":"53.0563","REV_AT_EPOCH":"13738","DECAY_DATE":null,"SEMIMAJOR_AXIS":"6925.344","PERIAPSIS":"546.140","LAUNCH_DATE":"2020-06-04","OBJECT_NAME":"STARLINK-1444","TLE_LINE1":"1 45661U 20035E   22326.50746334  .00001346  00000-0  10922-3 0  9990","COUNTRY_CODE":"US","MEAN_MOTION":"15.06401527","RCS_SIZE":"LARGE","EPOCH":"2022-11-22T12:10:44.832576"},{"MEAN_ELEMENT_THEORY":"SGP4","ECCENTRICITY":"0.00017710","TIME_SYSTEM":"UTC","MEAN_MOTION_DOT":"0.00000108","EPHEMERIS_TYPE":"0","OBJECT_ID":"2020-035F","TLE_LINE2":"2 45662  53.0577  66.9637 0001771  63.6040 296.5131 15.06390025137418","ARG_OF_PERICENTER":"63.6040","CLASSIFICATION_TYPE":"U","SITE":"AFETR","FILE":"3667517","REF_FRAME":"TEME","RA_OF_ASC_NODE":"66.9637","NORAD_CAT_ID":"45662","APOAPSIS":"548.471","OBJECT_TYPE":"PAYLOAD","ELEMENT_SET_NO":"999","GP_ID":"218499820","PERIOD":"95.593","MEAN_ANOMALY":"296.5131","CENTER_NAME":"EARTH","REV_AT_EPOCH":"13741","MEAN_MOTION_DDOT":"0.0000000000000","BSTAR":"0.00002614200000","INCLINATION":"53.0577","DECAY_DATE":null,"SEMIMAJOR_AXIS":"6925.379","PERIAPSIS":"546.018","LAUNCH_DATE":"2020-06-04","OBJECT_NAME":"STARLINK-1445","TLE_LINE1":"1 45662U 20035F   22326.72125878  .00000108  00000-0  26142-4 0  9996","COUNTRY_CODE":"US","RCS_SIZE":"LARGE","MEAN_MOTION":"15.06390025","EPOCH":"2022-11-22T17:18:36.758592"},{"CENTER_NAME":"EARTH","PERIOD":"95.592","MEAN_ANOMALY":"266.8836","MEAN_MOTION_DDOT":"0.0000000000000","BSTAR":"0.00013659000000","REV_AT_EPOCH":"13741","INCLINATION":"53.0557","DECAY_DATE":null,"PERIAPSIS":"546.319","SEMIMAJOR_AXIS":"6925.355","TLE_LINE1":"1 45663U 20035G   22326.72493731  .00001754  00000-0  13659-3 0  9999","LAUNCH_DATE":"2020-06-04","OBJECT_NAME":"STARLINK-1446","COUNTRY_CODE":"US","MEAN_MOTION":"15.06398043","RCS_SIZE":"LARGE","EPOCH":"2022-11-22T17:23:54.583584","ECCENTRICITY":"0.00013010","MEAN_ELEMENT_THEORY":"SGP4","TIME_SYSTEM":"UTC","MEAN_MOTION_DOT":"0.00001754","EPHEMERIS_TYPE":"0","TLE_LINE2":"2 45663  53.0557  66.9266 0001301  93.2302 266.8836 15.06398043137414","OBJECT_ID":"2020-035G","ARG_OF_PERICENTER":"93.2302","FILE":"3667517","CLASSIFICATION_TYPE":"U","SITE":"AFETR","REF_FRAME":"TEME","RA_OF_ASC_NODE":"66.9266","NORAD_CAT_ID":"45663","APOAPSIS":"548.121","ELEMENT_SET_NO":"999","GP_ID":"218500069","OBJECT_TYPE":"PAYLOAD"},{"RCS_SIZE":"LARGE","MEAN_MOTION":"15.06398719","EPOCH":"2022-11-22T18:11:40.430112","LAUNCH_DATE":"2020-06-04","OBJECT_NAME":"STARLINK-1448","TLE_LINE1":"1 45665U 20035J   22326.75810683  .00001792  00000-0  13915-3 0  9990","COUNTRY_CODE":"US","MEAN_ANOMALY":"275.8418","PERIOD":"95.592","CENTER_NAME":"EARTH","BSTAR":"0.00013915000000","MEAN_MOTION_DDOT":"0.0000000000000","REV_AT_EPOCH":"13741","INCLINATION":"53.0561","DECAY_DATE":null,"SEMIMAJOR_AXIS":"6925.352","PERIAPSIS":"546.274","RA_OF_ASC_NODE":"66.7984","NORAD_CAT_ID":"45665","APOAPSIS":"548.161","OBJECT_TYPE":"PAYLOAD","ELEMENT_SET_NO":"999","GP_ID":"218500821","CLASSIFICATION_TYPE":"U","SITE":"AFETR","FILE":"3667517","REF_FRAME":"TEME","EPHEMERIS_TYPE":"0","OBJECT_ID":"2020-035J","TLE_LINE2":"2 45665  53.0561  66.7984 0001362  84.2726 275.8418 15.06398719137419","ARG_OF_PERICENTER":"84.2726","ECCENTRICITY":"0.00013620","MEAN_ELEMENT_THEORY":"SGP4","TIME_SYSTEM":"UTC","MEAN_MOTION_DOT":"0.00001792"},{"EPHEMERIS_TYPE":"0","TLE_LINE2":"2 45666  53.0548  66.7484 0001280 101.4157 258.6976 15.06406953137417","OBJECT_ID":"2020-035K","ARG_OF_PERICENTER":"101.4157","ECCENTRICITY":"0.00012800","MEAN_ELEMENT_THEORY":"SGP4","TIME_SYSTEM":"UTC","MEAN_MOTION_DOT":"-0.00000518","RA_OF_ASC_NODE":"66.7484","NORAD_CAT_ID":"45666","APOAPSIS":"548.079","GP_ID":"218501571","ELEMENT_SET_NO":"999","OBJECT_TYPE":"PAYLOAD","FILE":"3667517","SITE":"AFETR","CLASSIFICATION_TYPE":"U","REF_FRAME":"TEME","TLE_LINE1":"1 45666U 20035K   22326.76179290 -.00000518  00000-0 -15887-4 0  9992","OBJECT_NAME":"STARLINK-1449","LAUNCH_DATE":"2020-06-04","COUNTRY_CODE":"US","CENTER_NAME":"EARTH","PERIOD":"95.592","MEAN_ANOMALY":"258.6976","BSTAR":"-0.00001588700000","MEAN_MOTION_DDOT":"0.0000000000000","REV_AT_EPOCH":"13741","INCLINATION":"53.0548","DECAY_DATE":null,"PERIAPSIS":"546.306","SEMIMAJOR_AXIS":"6925.327","MEAN_MOTION":"15.06406953","RCS_SIZE":"LARGE","EPOCH":"2022-11-22T18:16:58.906560"},{"ECCENTRICITY":"0.00014710","MEAN_ELEMENT_THEORY":"SGP4","TIME_SYSTEM":"UTC","MEAN_MOTION_DOT":"-0.00001500","EPHEMERIS_TYPE":"0","TLE_LINE2":"2 45667  53.0582  67.9870 0001471  83.0043 277.1113 15.06384449137378","OBJECT_ID":"2020-035L","ARG_OF_PERICENTER":"83.0043","FILE":"3667274","SITE":"AFETR","CLASSIFICATION_TYPE":"U","REF_FRAME":"TEME","RA_OF_ASC_NODE":"67.9870","NORAD_CAT_ID":"45667","APOAPSIS":"548.280","GP_ID":"218468694","ELEMENT_SET_NO":"999","OBJECT_TYPE":"PAYLOAD","CENTER_NAME":"EARTH","MEAN_ANOMALY":"277.1113","PERIOD":"95.593","MEAN_MOTION_DDOT":"0.0000000000000","BSTAR":"-0.00008186900000","REV_AT_EPOCH":"13737","INCLINATION":"53.0582","DECAY_DATE":null,"PERIAPSIS":"546.242","SEMIMAJOR_AXIS":"6925.396","TLE_LINE1":"1 45667U 20035L   22326.49917007 -.00001500  00000-0 -81869-4 0  9994","LAUNCH_DATE":"2020-06-04","OBJECT_NAME":"STARLINK-1450","COUNTRY_CODE":"US","MEAN_MOTION":"15.06384449","RCS_SIZE":"LARGE","EPOCH":"2022-11-22T11:58:48.294048"},{"GP_ID":"218500569","ELEMENT_SET_NO":"999","OBJECT_TYPE":"PAYLOAD","APOAPSIS":"548.024","NORAD_CAT_ID":"45668","RA_OF_ASC_NODE":"66.3240","REF_FRAME":"TEME","FILE":"3667517","CLASSIFICATION_TYPE":"U","SITE":"AFETR","ARG_OF_PERICENTER":"61.2688","TLE_LINE2":"2 45668  53.0561  66.3240 0001224  61.2688 298.8424 15.06412072137446","OBJECT_ID":"2020-035M","EPHEMERIS_TYPE":"0","MEAN_MOTION_DOT":"-0.00005997","TIME_SYSTEM":"UTC","ECCENTRICITY":"0.00012240","MEAN_ELEMENT_THEORY":"SGP4","EPOCH":"2022-11-22T20:44:14.613792","RCS_SIZE":"LARGE","MEAN_MOTION":"15.06412072","COUNTRY_CODE":"US","TLE_LINE1":"1 45668U 20035M   22326.86405803 -.00005997  00000-0 -38392-3 0  9998","LAUNCH_DATE":"2020-06-04","OBJECT_NAME":"STARLINK-1451","PERIAPSIS":"546.329","SEMIMAJOR_AXIS":"6925.312","DECAY_DATE":null,"MEAN_MOTION_DDOT":"0.0000000000000","BSTAR":"-0.00038392000000","INCLINATION":"53.0561","REV_AT_EPOCH":"13744","CENTER_NAME":"EARTH","MEAN_ANOMALY":"298.8424","PERIOD":"95.591"},{"COUNTRY_CODE":"US","OBJECT_NAME":"STARLINK-1452","LAUNCH_DATE":"2020-06-04","TLE_LINE1":"1 45669U 20035N   22326.84657028  .00001106  00000-0  93135-4 0  9998","DECAY_DATE":null,"SEMIMAJOR_AXIS":"6925.343","PERIAPSIS":"546.287","MEAN_ANOMALY":"269.8883","PERIOD":"95.592","CENTER_NAME":"EARTH","REV_AT_EPOCH":"13743","MEAN_MOTION_DDOT":"0.0000000000000","BSTAR":"0.00009313500000","INCLINATION":"53.0562","EPOCH":"2022-11-22T20:19:03.672192","RCS_SIZE":"LARGE","MEAN_MOTION":"15.06401744","ARG_OF_PERICENTER":"90.2259","EPHEMERIS_TYPE":"0","OBJECT_ID":"2020-035N","TLE_LINE2":"2 45669  53.0562  66.3905 0001330  90.2259 269.8883 15.06401744137430","MEAN_MOTION_DOT":"0.00001106","MEAN_ELEMENT_THEORY":"SGP4","ECCENTRICITY":"0.00013300","TIME_SYSTEM":"UTC","APOAPSIS":"548.129","OBJECT_TYPE":"PAYLOAD","ELEMENT_SET_NO":"999","GP_ID":"218501321","RA_OF_ASC_NODE":"66.3905","NORAD_CAT_ID":"45669","CLASSIFICATION_TYPE":"U","SITE":"AFETR","FILE":"3667517","REF_FRAME":"TEME"},{"EPHEMERIS_TYPE":"0","OBJECT_ID":"2020-035P","TLE_LINE2":"2 45670  53.0555  38.2256 0001252  79.1522 280.9608 15.06406527137683","ARG_OF_PERICENTER":"79.1522","ECCENTRICITY":"0.00012520","MEAN_ELEMENT_THEORY":"SGP4","TIME_SYSTEM":"UTC","MEAN_MOTION_DOT":"0.00010743","RA_OF_ASC_NODE":"38.2256","NORAD_CAT_ID":"45670","APOAPSIS":"548.061","OBJECT_TYPE":"PAYLOAD","GP_ID":"218469433","ELEMENT_SET_NO":"999","SITE":"AFETR","CLASSIFICATION_TYPE":"U","FILE":"3667274","REF_FRAME":"TEME","LAUNCH_DATE":"2020-06-04","OBJECT_NAME":"STARLINK-1453","TLE_LINE1":"1 45670U 20035P   22326.44021287  .00010743  00000-0  73889-3 0  9998","COUNTRY_CODE":"US","MEAN_ANOMALY":"280.9608","PERIOD":"95.592","CENTER_NAME":"EARTH","MEAN_MOTION_DDOT":"0.0000000000000","BSTAR":"0.00073889000000","INCLINATION":"53.0555","REV_AT_EPOCH":"13768","DECAY_DATE":null,"SEMIMAJOR_AXIS":"6925.329","PERIAPSIS":"546.327","RCS_SIZE":"LARGE","MEAN_MOTION":"15.06406527","EPOCH":"2022-11-22T10:33:54.391968"},{"NORAD_CAT_ID":"45671","RA_OF_ASC_NODE":"67.8620","OBJECT_TYPE":"PAYLOAD","ELEMENT_SET_NO":"999","GP_ID":"218468196","APOAPSIS":"548.078","REF_FRAME":"TEME","SITE":"AFETR","CLASSIFICATION_TYPE":"U","FILE":"3667274","OBJECT_ID":"2020-035Q","TLE_LINE2":"2 45671  53.0563  67.8620 0001191  87.7535 272.3591 15.06387108137372","EPHEMERIS_TYPE":"0","ARG_OF_PERICENTER":"87.7535","TIME_SYSTEM":"UTC","MEAN_ELEMENT_THEORY":"SGP4","ECCENTRICITY":"0.00011910","MEAN_MOTION_DOT":"-0.00000264","MEAN_MOTION":"15.06387108","RCS_SIZE":"LARGE","EPOCH":"2022-11-22T12:26:42.236160","LAUNCH_DATE":"2020-06-04","OBJECT_NAME":"STARLINK-1454","TLE_LINE1":"1 45671U 20035Q   22326.51854440 -.00000264  00000-0  11886-5 0  9991","COUNTRY_CODE":"US","BSTAR":"0.00000118860000","MEAN_MOTION_DDOT":"0.0000000000000","REV_AT_EPOCH":"13737","INCLINATION":"53.0563","MEAN_ANOMALY":"272.3591","PERIOD":"95.593","CENTER_NAME":"EARTH","SEMIMAJOR_AXIS":"6925.388","PERIAPSIS":"546.428","DECAY_DATE":null}];
